{
  "type": "FeatureCollection",
  "name": "cities",
  "features": [
    {
      "type": "Feature",
      "properties": { "name": "Bengaluru", "state": "Karnataka", "population": 8443675, "area_km2": 709 },
      "geometry": { "type": "Point", "coordinates": [77.5946, 12.9716] }
    },
    {
      "type": "Feature",
      "properties": { "name": "Mumbai", "state": "Maharashtra", "population": 12442373, "area_km2": 603 },
      "geometry": { "type": "Point", "coordinates": [72.8777, 19.076] }
    },
    {
      "type": "Feature",
      "properties": { "name": "Delhi", "state": "Delhi", "population": 11007835, "area_km2": 1484 },
      "geometry": { "type": "Point", "coordinates": [77.1025, 28.7041] }
    },
    {
      "type": "Feature",
      "properties": { "name": "Chennai", "state": "Tamil Nadu", "population": 7091000, "area_km2": 426 },
      "geometry": { "type": "Point", "coordinates": [80.2707, 13.0827] }
    },
    {
      "type": "Feature",
      "properties": { "name": "Kolkata", "state": "West Bengal", "population": 4496694, "area_km2": 205 },
      "geometry": { "type": "Point", "coordinates": [88.3639, 22.5726] }
    }
  ]
}
